{"type": "FeatureCollection", "features": [ {"type": "Feature", "properties": {"norad_id": 29919, "name": "FENGYUN 1C DEB", "group": "fengyun-1c-debris", "lat": 29.355748166948516, "lon": 135.04487930486275, "alt_km": 868.8449735548429, "timestamp": "2025-12-11T07:02:24.002486+00:00", "meta": {"OBJECT_NAME": "FENGYUN 1C DEB", "OBJECT_ID": "1999-025HR", "EPOCH": "2025-12-10T17:06:10.702368", "MEAN_MOTION": 13.85121903, "ECCENTRICITY": 0.01374642, "INCLINATION": 98.479, "RA_OF_ASC_NODE": 139.3324, "ARG_OF_PERICENTER": 349.3716, "MEAN_ANOMALY": 25.3079, "EPHEMERIS_TYPE": 0, "CLASSIFICATION_TYPE": "U", "NORAD_CAT_ID": 29919, "ELEMENT_SET_NO": 999, "REV_AT_EPOCH": 95507, "BSTAR": 0.00024586227, "MEAN_MOTION_DOT": 2.61e-06, "MEAN_MOTION_DDOT": 0}, "tle": {"line1": "1 29919U 99025HR  25344.71262387  .00000261  00000+0  24586-3 0  9995", "line2": "2 29919  98.4790 139.3324 0137464 349.3716  25.3079 13.85121903955077"}}, "geometry": {"type": "Point", "coordinates": [135.04487930486275, 29.355748166948516]}}, {"type": "Feature", "properties": {"norad_id": 29920, "name": "FENGYUN 1C DEB", "group": "fengyun-1c-debris", "lat": 12.678811787425968, "lon": 21.802910535161608, "alt_km": 923.9911482280731, "timestamp": "2025-12-11T07:02:24.002496+00:00", "meta": {"OBJECT_NAME": "FENGYUN 1C DEB", "OBJECT_ID": "1999-025HS", "EPOCH": "2025-12-10T13:07:34.045248", "MEAN_MOTION": 14.03644456, "ECCENTRICITY": 0.0125447, "INCLINATION": 98.3915, "RA_OF_ASC_NODE": 199.2107, "ARG_OF_PERICENTER": 287.0603, "MEAN_ANOMALY": 71.6855, "EPHEMERIS_TYPE": 0, "CLASSIFICATION_TYPE": "U", "NORAD_CAT_ID": 29920, "ELEMENT_SET_NO": 999, "REV_AT_EPOCH": 96257, "BSTAR": 0.0018726, "MEAN_MOTION_DOT": 3.114e-05, "MEAN_MOTION_DDOT": 0}, "tle": {"line1": "1 29920U 99025HS  25344.54692182  .00003114  00000+0  18726-2 0  9996", "line2": "2 29920  98.3915 199.2107 0125447 287.0603  71.6855 14.03644456962575"}}, "geometry": {"type": "Point", "coordinates": [21.802910535161608, 12.678811787425968]}}, {"type": "Feature", "properties": {"norad_id": 29921, "name": "FENGYUN 1C DEB", "group": "fengyun-1c-debris", "lat": -12.497990709201922, "lon": -6.5835240200941145, "alt_km": 872.8776828118935, "timestamp": "2025-12-11T07:02:24.002507+00:00", "meta": {"OBJECT_NAME": "FENGYUN 1C DEB", "OBJECT_ID": "1999-025HT", "EPOCH": "2025-12-10T12:55:22.587168", "MEAN_MOTION": 14.06639278, "ECCENTRICITY": 0.0046444, "INCLINATION": 98.7869, "RA_OF_ASC_NODE": 350.7187, "ARG_OF_PERICENTER": 75.7965, "MEAN_ANOMALY": 51.6968, "EPHEMERIS_TYPE": 0, "CLASSIFICATION_TYPE": "U", "NORAD_CAT_ID": 29921, "ELEMENT_SET_NO": 999, "REV_AT_EPOCH": 96845, "BSTAR": 0.0006321, "MEAN_MOTION_DOT": 1.016e-05, "MEAN_MOTION_DDOT": 0}, "tle": {"line1": "1 29921U 99025HT  25344.53845587  .00001016  00000+0  63210-3 0  9993", "line2": "2 29921  98.7869 350.7187 0046444  75.7965  51.6968 14.06639278968457"}}, "geometry": {"type": "Point", "coordinates": [-6.5835240200941145, -12.497990709201922]}}, {"type": "Feature", "properties": {"norad_id": 29922, "name": "FENGYUN 1C DEB", "group": "fengyun-1c-debris", "lat": 2.845638207864901, "lon": -136.7934833876658, "alt_km": 967.1061961711921, "timestamp": "2025-12-11T07:02:24.002517+00:00", "meta": {"OBJECT_NAME": "FENGYUN 1C DEB", "OBJECT_ID": "1999-025HU", "EPOCH": "2025-12-10T21:36:49.896864", "MEAN_MOTION": 13.98579836, "ECCENTRICITY": 0.00933792, "INCLINATION": 99.1361, "RA_OF_ASC_NODE": 42.357, "ARG_OF_PERICENTER": 12.1154, "MEAN_ANOMALY": 348.2225, "EPHEMERIS_TYPE": 0, "CLASSIFICATION_TYPE": "U", "NORAD_CAT_ID": 29922, "ELEMENT_SET_NO": 999, "REV_AT_EPOCH": 96415, "BSTAR": 0.00017077009, "MEAN_MOTION_DOT": 2.09e-06, "MEAN_MOTION_DDOT": 0}, "tle": {"line1": "1 29922U 99025HU  25344.90057751  .00000209  00000+0  17077-3 0  9996", "line2": "2 29922  99.1361  42.3570 0093379  12.1154 348.2225 13.98579836964151"}}, "geometry": {"type": "Point", "coordinates": [-136.7934833876658, 2.845638207864901]}}, {"type": "Feature", "properties": {"norad_id": 29923, "name": "FENGYUN 1C DEB", "group": "fengyun-1c-debris", "lat": -60.264452926768904, "lon": 9.153091287589042, "alt_km": 860.5092608562036, "timestamp": "2025-12-11T07:02:24.002527+00:00", "meta": {"OBJECT_NAME": "FENGYUN 1C DEB", "OBJECT_ID": "1999-025HV", "EPOCH": "2025-12-10T18:35:01.172832", "MEAN_MOTION": 14.13887245, "ECCENTRICITY": 0.00175392, "INCLINATION": 98.6883, "RA_OF_ASC_NODE": 353.1217, "ARG_OF_PERICENTER": 174.8205, "MEAN_ANOMALY": 3.3247, "EPHEMERIS_TYPE": 0, "CLASSIFICATION_TYPE": "U", "NORAD_CAT_ID": 29923, "ELEMENT_SET_NO": 999, "REV_AT_EPOCH": 97247, "BSTAR": 0.00068422221, "MEAN_MOTION_DOT": 1.256e-05, "MEAN_MOTION_DDOT": 0}, "tle": {"line1": "1 29923U 99025HV  25344.77431913  .00001256  00000+0  68422-3 0  9991", "line2": "2 29923  98.6883 353.1217 0017539 174.8205   3.3247 14.13887245972474"}}, "geometry": {"type": "Point", "coordinates": [9.153091287589042, -60.264452926768904]}}, {"type": "Feature", "properties": {"norad_id": 29924, "name": "FENGYUN 1C DEB", "group": "fengyun-1c-debris", "lat": -60.03380005541741, "lon": 13.760068545608778, "alt_km": 855.2621083983213, "timestamp": "2025-12-11T07:02:24.002537+00:00", "meta": {"OBJECT_NAME": "FENGYUN 1C DEB", "OBJECT_ID": "1999-025HW", "EPOCH": "2025-12-10T07:32:01.868064", "MEAN_MOTION": 14.08889217, "ECCENTRICITY": 0.0025873, "INCLINATION": 98.7345, "RA_OF_ASC_NODE": 357.3467, "ARG_OF_PERICENTER": 264.7692, "MEAN_ANOMALY": 109.0253, "EPHEMERIS_TYPE": 0, "CLASSIFICATION_TYPE": "U", "NORAD_CAT_ID": 29924, "ELEMENT_SET_NO": 999, "REV_AT_EPOCH": 97174, "BSTAR": 0.00012829, "MEAN_MOTION_DOT": 1.8e-06, "MEAN_MOTION_DDOT": 0}, "tle": {"line1": "1 29924U 99025HW  25344.31391051  .00000180  00000+0  12829-3 0  9995", "line2": "2 29924  98.7345 357.3467 0025873 264.7692 109.0253 14.08889217971746"}}, "geometry": {"type": "Point", "coordinates": [13.760068545608778, -60.03380005541741]}}, {"type": "Feature", "properties": {"norad_id": 29926, "name": "FENGYUN 1C DEB", "group": "fengyun-1c-debris", "lat": 41.49776152671215, "lon": -33.15028510539343, "alt_km": 796.0477727582283, "timestamp": "2025-12-11T07:02:24.002547+00:00", "meta": {"OBJECT_NAME": "FENGYUN 1C DEB", "OBJECT_ID": "1999-025HY", "EPOCH": "2025-12-10T22:37:14.198880", "MEAN_MOTION": 14.33384636, "ECCENTRICITY": 0.02483361, "INCLINATION": 98.2835, "RA_OF_ASC_NODE": 333.9185, "ARG_OF_PERICENTER": 305.625, "MEAN_ANOMALY": 84.4765, "EPHEMERIS_TYPE": 0, "CLASSIFICATION_TYPE": "U", "NORAD_CAT_ID": 29926, "ELEMENT_SET_NO": 999, "REV_AT_EPOCH": 98555, "BSTAR": 0.00063626328, "MEAN_MOTION_DOT": 2.425e-05, "MEAN_MOTION_DDOT": 0}, "tle": {"line1": "1 29926U 99025HY  25344.94252545  .00002425  00000+0  63626-3 0  9995", "line2": "2 29926  98.2835 333.9185 0248336 305.6250  84.4765 14.33384636985551"}}, "geometry": {"type": "Point", "coordinates": [-33.15028510539343, 41.49776152671215]}}, {"type": "Feature", "properties": {"norad_id": 29927, "name": "FENGYUN 1C DEB", "group": "fengyun-1c-debris", "lat": -45.38446053271606, "lon": 18.40125012480238, "alt_km": 655.5347740139096, "timestamp": "2025-12-11T07:02:24.002557+00:00", "meta": {"OBJECT_NAME": "FENGYUN 1C DEB", "OBJECT_ID": "1999-025HZ", "EPOCH": "2025-12-10T00:27:03.990816", "MEAN_MOTION": 14.74389542, "ECCENTRICITY": 0.00176546, "INCLINATION": 99.0843, "RA_OF_ASC_NODE": 7.6413, "ARG_OF_PERICENTER": 218.6966, "MEAN_ANOMALY": 173.8681, "EPHEMERIS_TYPE": 0, "CLASSIFICATION_TYPE": "U", "NORAD_CAT_ID": 29927, "ELEMENT_SET_NO": 999, "REV_AT_EPOCH": 98607, "BSTAR": 0.0043391709, "MEAN_MOTION_DOT": 0.00028906, "MEAN_MOTION_DDOT": 0}, "tle": {"line1": "1 29927U 99025HZ  25344.01879619  .00028906  00000+0  43392-2 0  9990", "line2": "2 29927  99.0843   7.6413 0017654 218.6966 173.8681 14.74389542986077"}}, "geometry": {"type": "Point", "coordinates": [18.40125012480238, -45.38446053271606]}}, {"type": "Feature", "properties": {"norad_id": 29928, "name": "FENGYUN 1C DEB", "group": "fengyun-1c-debris", "lat": 24.246605206685054, "lon": -166.11419053377602, "alt_km": 864.0905043292532, "timestamp": "2025-12-11T07:02:24.002568+00:00", "meta": {"OBJECT_NAME": "FENGYUN 1C DEB", "OBJECT_ID": "1999-025JA", "EPOCH": "2025-12-10T01:01:58.968768", "MEAN_MOTION": 13.88077825, "ECCENTRICITY": 0.01434645, "INCLINATION": 99.5849, "RA_OF_ASC_NODE": 8.2376, "ARG_OF_PERICENTER": 110.2315, "MEAN_ANOMALY": 279.3545, "EPHEMERIS_TYPE": 0, "CLASSIFICATION_TYPE": "U", "NORAD_CAT_ID": 29928, "ELEMENT_SET_NO": 999, "REV_AT_EPOCH": 95454, "BSTAR": 0.00082815704, "MEAN_MOTION_DOT": 1.026e-05, "MEAN_MOTION_DDOT": 0}, "tle": {"line1": "1 29928U 99025JA  25344.04304362  .00001026  00000+0  82816-3 0  9991", "line2": "2 29928  99.5849   8.2376 0143464 110.2315 279.3545 13.88077825954548"}}, "geometry": {"type": "Point", "coordinates": [-166.11419053377602, 24.246605206685054]}}, {"type": "Feature", "properties": {"norad_id": 29929, "name": "FENGYUN 1C DEB", "group": "fengyun-1c-debris", "lat": -49.672039146593626, "lon": -85.08564908794912, "alt_km": 955.5370304861954, "timestamp": "2025-12-11T07:02:24.002580+00:00", "meta": {"OBJECT_NAME": "FENGYUN 1C DEB", "OBJECT_ID": "1999-025JB", "EPOCH": "2025-12-10T17:43:11.755200", "MEAN_MOTION": 14.01351069, "ECCENTRICITY": 0.01310825, "INCLINATION": 98.6239, "RA_OF_ASC_NODE": 264.0917, "ARG_OF_PERICENTER": 181.8871, "MEAN_ANOMALY": 208.2099, "EPHEMERIS_TYPE": 0, "CLASSIFICATION_TYPE": "U", "NORAD_CAT_ID": 29929, "ELEMENT_SET_NO": 999, "REV_AT_EPOCH": 95928, "BSTAR": 0.0013901783, "MEAN_MOTION_DOT": 2.218e-05, "MEAN_MOTION_DDOT": 0}, "tle": {"line1": "1 29929U 99025JB  25344.73833050  .00002218  00000+0  13902-2 0  9992", "line2": "2 29929  98.6239 264.0917 0131082 181.8871 208.2099 14.01351069959281"}}, "geometry": {"type": "Point", "coordinates": [-85.08564908794912, -49.672039146593626]}}]}